{
  "type": "FeatureCollection",
  "_meta": {
    "layer": "The Living Agora — Libraries",
    "note": "Ancient libraries, archives, and manuscript findspots. Marker properties are lightweight; each site's full detail (metadata, evidence, texts) lives in its corpus_manifest. Place identifiers from Pleiades (CC BY 3.0).",
    "status": "slice 3 — Ephesus (Celsus) + Pergamon + Alexandria (Mouseion)"
  },
  "features": [
    {
      "type": "Feature",
      "geometry": {
        "type": "Point",
        "coordinates": [
          27.3417,
          37.9395
        ]
      },
      "properties": {
        "id": "ephesus-celsus",
        "name": "Library of Celsus",
        "place": "Ephesus",
        "culture": "Roman Imperial (Greek East)",
        "pleiades_uri": "https://pleiades.stoa.org/places/599612",
        "period_start": 110,
        "period_end": 135,
        "period_label": "c. 110–135 CE",
        "model": "3d_models/celsus_library.glb",
        "reconstruction_confidence": "high-facade",
        "corpus_manifest": "data/libraries/ephesus-celsus.json"
      }
    },
    {
      "type": "Feature",
      "geometry": {
        "type": "Point",
        "coordinates": [
          27.1844,
          39.1335
        ]
      },
      "properties": {
        "id": "pergamon-library",
        "name": "Library of Pergamon",
        "place": "Pergamon",
        "culture": "Hellenistic (Attalid kingdom)",
        "pleiades_uri": "https://pleiades.stoa.org/places/550595",
        "period_start": -197,
        "period_end": -159,
        "period_label": "c. 197–159 BCE",
        "model": "3d_models/pergamon_library.glb",
        "reconstruction_confidence": "identified-interior-approximate",
        "corpus_manifest": "data/libraries/pergamon-library.json"
      }
    },
    {
      "type": "Feature",
      "geometry": {
        "type": "Point",
        "coordinates": [
          29.9091,
          31.2092
        ]
      },
      "properties": {
        "id": "alexandria-mouseion",
        "name": "The Mouseion & Great Library",
        "place": "Alexandria",
        "culture": "Hellenistic (Ptolemaic Egypt)",
        "pleiades_uri": "https://pleiades.stoa.org/places/727070",
        "period_start": -285,
        "period_end": -48,
        "period_label": "c. 285 BCE onward",
        "model": "3d_models/mouseion.min.glb",
        "reconstruction_confidence": "location-approximate-architecture-speculative",
        "corpus_manifest": "data/libraries/alexandria-mouseion.json"
      }
    }
  ]
}